IRIDIUM 159             
1 43578U 18061K   24293.12710456  .00000338  00000+0  11370-3 0  9997
2 43578  86.3929 309.9891 0002178  90.9503 269.1942 14.34218696326513
IRIDIUM 180             
1 43922U 19002A   24292.84753556  .00001167  00000+0  40940-3 0  9998
2 43922  86.3954 246.9347 0002148  83.9449 276.1992 14.34220775302088
IRIDIUM 168             
1 43924U 19002C   24292.77143076  .00001275  00000+0  44828-3 0  9991
2 43924  86.3955 247.0269 0002220  84.8185 275.3264 14.34220907302051
IRIDIUM 173             
1 43925U 19002D   24293.10757567  .00001210  00000+0  42477-3 0  9993
2 43925  86.3952 246.8000 0002160  81.3669 278.7771 14.34221683302097
IRIDIUM 169             
1 43926U 19002E   24293.21280914  .00001155  00000+0  37105-3 0  9993
2 43926  86.4167 278.3998 0002861 127.2115 232.9344 14.38609596303105
IRIDIUM 172             
1 43927U 19002F   24293.17100649  .00001429  00000+0  50300-3 0  9991
2 43927  86.3952 246.7795 0002247  84.2378 275.9074 14.34225038302109
