<?xml version="1.0" encoding="UTF-8"?>
<ndm xmlns:xsi="http://www.w3.org/2001/XMLSchema-instance" xsi:noNamespaceSchemaLocation="https://sanaregistry.org/r/ndmxml_unqualified/ndmxml-2.0.0-master-2.0.xsd">
<omm id="CCSDS_OMM_VERS" version="2.0">
<header><CREATION_DATE/><ORIGINATOR/></header><body><segment><metadata><OBJECT_NAME>IRIDIUM 159</OBJECT_NAME><OBJECT_ID>2018-061K</OBJECT_ID><CENTER_NAME>EARTH</CENTER_NAME><REF_FRAME>TEME</REF_FRAME><TIME_SYSTEM>UTC</TIME_SYSTEM><MEAN_ELEMENT_THEORY>SGP4</MEAN_ELEMENT_THEORY></metadata><data><meanElements><EPOCH>2024-10-19T03:03:01.833984</EPOCH><MEAN_MOTION>14.34218696</MEAN_MOTION><ECCENTRICITY>.0002178</ECCENTRICITY><INCLINATION>86.3929</INCLINATION><RA_OF_ASC_NODE>309.9891</RA_OF_ASC_NODE><ARG_OF_PERICENTER>90.9503</ARG_OF_PERICENTER><MEAN_ANOMALY>269.1942</MEAN_ANOMALY></meanElements><tleParameters><EPHEMERIS_TYPE>0</EPHEMERIS_TYPE><CLASSIFICATION_TYPE>U</CLASSIFICATION_TYPE><NORAD_CAT_ID>43578</NORAD_CAT_ID><ELEMENT_SET_NO>999</ELEMENT_SET_NO><REV_AT_EPOCH>32651</REV_AT_EPOCH><BSTAR>.1137E-3</BSTAR><MEAN_MOTION_DOT>.338E-5</MEAN_MOTION_DOT><MEAN_MOTION_DDOT>0</MEAN_MOTION_DDOT></tleParameters></data></segment></body></omm>
<omm id="CCSDS_OMM_VERS" version="2.0">
<header><CREATION_DATE/><ORIGINATOR/></header><body><segment><metadata><OBJECT_NAME>IRIDIUM 180</OBJECT_NAME><OBJECT_ID>2019-002A</OBJECT_ID><CENTER_NAME>EARTH</CENTER_NAME><REF_FRAME>TEME</REF_FRAME><TIME_SYSTEM>UTC</TIME_SYSTEM><MEAN_ELEMENT_THEORY>SGP4</MEAN_ELEMENT_THEORY></metadata><data><meanElements><EPOCH>2024-10-18T20:20:27.072384</EPOCH><MEAN_MOTION>14.34220775</MEAN_MOTION><ECCENTRICITY>.0002148</ECCENTRICITY><INCLINATION>86.3954</INCLINATION><RA_OF_ASC_NODE>246.9347</RA_OF_ASC_NODE><ARG_OF_PERICENTER>83.9449</ARG_OF_PERICENTER><MEAN_ANOMALY>276.1992</MEAN_ANOMALY></meanElements><tleParameters><EPHEMERIS_TYPE>0</EPHEMERIS_TYPE><CLASSIFICATION_TYPE>U</CLASSIFICATION_TYPE><NORAD_CAT_ID>43922</NORAD_CAT_ID><ELEMENT_SET_NO>999</ELEMENT_SET_NO><REV_AT_EPOCH>30208</REV_AT_EPOCH><BSTAR>.4094E-3</BSTAR><MEAN_MOTION_DOT>.1167E-4</MEAN_MOTION_DOT><MEAN_MOTION_DDOT>0</MEAN_MOTION_DDOT></tleParameters></data></segment></body></omm>
<omm id="CCSDS_OMM_VERS" version="2.0">
<header><CREATION_DATE/><ORIGINATOR/></header><body><segment><metadata><OBJECT_NAME>IRIDIUM 168</OBJECT_NAME><OBJECT_ID>2019-002C</OBJECT_ID><CENTER_NAME>EARTH</CENTER_NAME><REF_FRAME>TEME</REF_FRAME><TIME_SYSTEM>UTC</TIME_SYSTEM><MEAN_ELEMENT_THEORY>SGP4</MEAN_ELEMENT_THEORY></metadata><data><meanElements><EPOCH>2024-10-18T18:30:51.617664</EPOCH><MEAN_MOTION>14.34220907</MEAN_MOTION><ECCENTRICITY>.000222</ECCENTRICITY><INCLINATION>86.3955</INCLINATION><RA_OF_ASC_NODE>247.0269</RA_OF_ASC_NODE><ARG_OF_PERICENTER>84.8185</ARG_OF_PERICENTER><MEAN_ANOMALY>275.3264</MEAN_ANOMALY></meanElements><tleParameters><EPHEMERIS_TYPE>0</EPHEMERIS_TYPE><CLASSIFICATION_TYPE>U</CLASSIFICATION_TYPE><NORAD_CAT_ID>43924</NORAD_CAT_ID><ELEMENT_SET_NO>999</ELEMENT_SET_NO><REV_AT_EPOCH>30205</REV_AT_EPOCH><BSTAR>.44828E-3</BSTAR><MEAN_MOTION_DOT>.1275E-4</MEAN_MOTION_DOT><MEAN_MOTION_DDOT>0</MEAN_MOTION_DDOT></tleParameters></data></segment></body></omm>
<omm id="CCSDS_OMM_VERS" version="2.0">
<header><CREATION_DATE/><ORIGINATOR/></header><body><segment><metadata><OBJECT_NAME>IRIDIUM 173</OBJECT_NAME><OBJECT_ID>2019-002D</OBJECT_ID><CENTER_NAME>EARTH</CENTER_NAME><REF_FRAME>TEME</REF_FRAME><TIME_SYSTEM>UTC</TIME_SYSTEM><MEAN_ELEMENT_THEORY>SGP4</MEAN_ELEMENT_THEORY></metadata><data><meanElements><EPOCH>2024-10-19T02:34:54.537888</EPOCH><MEAN_MOTION>14.34221683</MEAN_MOTION><ECCENTRICITY>.000216</ECCENTRICITY><INCLINATION>86.3952</INCLINATION><RA_OF_ASC_NODE>246.8000</RA_OF_ASC_NODE><ARG_OF_PERICENTER>81.3669</ARG_OF_PERICENTER><MEAN_ANOMALY>278.7771</MEAN_ANOMALY></meanElements><tleParameters><EPHEMERIS_TYPE>0</EPHEMERIS_TYPE><CLASSIFICATION_TYPE>U</CLASSIFICATION_TYPE><NORAD_CAT_ID>43925</NORAD_CAT_ID><ELEMENT_SET_NO>999</ELEMENT_SET_NO><REV_AT_EPOCH>30209</REV_AT_EPOCH><BSTAR>.42477E-3</BSTAR><MEAN_MOTION_DOT>.121E-4</MEAN_MOTION_DOT><MEAN_MOTION_DDOT>0</MEAN_MOTION_DDOT></tleParameters></data></segment></body></omm>
<omm id="CCSDS_OMM_VERS" version="2.0">
<header><CREATION_DATE/><ORIGINATOR/></header><body><segment><metadata><OBJECT_NAME>IRIDIUM 169</OBJECT_NAME><OBJECT_ID>2019-002E</OBJECT_ID><CENTER_NAME>EARTH</CENTER_NAME><REF_FRAME>TEME</REF_FRAME><TIME_SYSTEM>UTC</TIME_SYSTEM><MEAN_ELEMENT_THEORY>SGP4</MEAN_ELEMENT_THEORY></metadata><data><meanElements><EPOCH>2024-10-19T05:06:26.709696</EPOCH><MEAN_MOTION>14.38609596</MEAN_MOTION><ECCENTRICITY>.0002861</ECCENTRICITY><INCLINATION>86.4167</INCLINATION><RA_OF_ASC_NODE>278.3998</RA_OF_ASC_NODE><ARG_OF_PERICENTER>127.2115</ARG_OF_PERICENTER><MEAN_ANOMALY>232.9344</MEAN_ANOMALY></meanElements><tleParameters><EPHEMERIS_TYPE>0</EPHEMERIS_TYPE><CLASSIFICATION_TYPE>U</CLASSIFICATION_TYPE><NORAD_CAT_ID>43926</NORAD_CAT_ID><ELEMENT_SET_NO>999</ELEMENT_SET_NO><REV_AT_EPOCH>30310</REV_AT_EPOCH><BSTAR>.37105E-3</BSTAR><MEAN_MOTION_DOT>.1155E-4</MEAN_MOTION_DOT><MEAN_MOTION_DDOT>0</MEAN_MOTION_DDOT></tleParameters></data></segment></body></omm>
<omm id="CCSDS_OMM_VERS" version="2.0">
<header><CREATION_DATE/><ORIGINATOR/></header><body><segment><metadata><OBJECT_NAME>IRIDIUM 172</OBJECT_NAME><OBJECT_ID>2019-002F</OBJECT_ID><CENTER_NAME>EARTH</CENTER_NAME><REF_FRAME>TEME</REF_FRAME><TIME_SYSTEM>UTC</TIME_SYSTEM><MEAN_ELEMENT_THEORY>SGP4</MEAN_ELEMENT_THEORY></metadata><data><meanElements><EPOCH>2024-10-19T04:06:14.960736</EPOCH><MEAN_MOTION>14.34225038</MEAN_MOTION><ECCENTRICITY>.0002247</ECCENTRICITY><INCLINATION>86.3952</INCLINATION><RA_OF_ASC_NODE>246.7795</RA_OF_ASC_NODE><ARG_OF_PERICENTER>84.2378</ARG_OF_PERICENTER><MEAN_ANOMALY>275.9074</MEAN_ANOMALY></meanElements><tleParameters><EPHEMERIS_TYPE>0</EPHEMERIS_TYPE><CLASSIFICATION_TYPE>U</CLASSIFICATION_TYPE><NORAD_CAT_ID>43927</NORAD_CAT_ID><ELEMENT_SET_NO>999</ELEMENT_SET_NO><REV_AT_EPOCH>30210</REV_AT_EPOCH><BSTAR>.503E-3</BSTAR><MEAN_MOTION_DOT>.1429E-4</MEAN_MOTION_DOT><MEAN_MOTION_DDOT>0</MEAN_MOTION_DDOT></tleParameters></data></segment></body></omm>

</ndm>
